{"type": "FeatureCollection", "features": [ {"type": "Feature", "properties": {"norad_id": 34833, "name": "IRIDIUM 33 DEB", "group": "iridium-33-debris", "lat": 72.3683991204392, "lon": 64.09700112022955, "alt_km": 698.8755751372073, "timestamp": "2025-12-08T21:31:05.051921+00:00", "meta": {"OBJECT_NAME": "IRIDIUM 33 DEB", "OBJECT_ID": "1997-051MH", "EPOCH": "2025-12-08T11:20:22.290144", "MEAN_MOTION": 14.52337635, "ECCENTRICITY": 0.00217459, "INCLINATION": 86.3933, "RA_OF_ASC_NODE": 52.8332, "ARG_OF_PERICENTER": 111.6226, "MEAN_ANOMALY": 265.3104, "EPHEMERIS_TYPE": 0, "CLASSIFICATION_TYPE": "U", "NORAD_CAT_ID": 34833, "ELEMENT_SET_NO": 999, "REV_AT_EPOCH": 87653, "BSTAR": 0.0012181762, "MEAN_MOTION_DOT": 4.99e-05, "MEAN_MOTION_DDOT": 0}, "tle": {"line1": "1 34833U 97051MH  25342.47248021  .00004990  00000+0  12182-2 0  9994", "line2": "2 34833  86.3933  52.8332 0021745 111.6226 265.3104 14.52337635876535"}}, "geometry": {"type": "Point", "coordinates": [64.09700112022955, 72.3683991204392]}}, {"type": "Feature", "properties": {"norad_id": 34870, "name": "IRIDIUM 33 DEB", "group": "iridium-33-debris", "lat": 72.72403274682046, "lon": -32.179928015195834, "alt_km": 640.25961398446, "timestamp": "2025-12-08T21:31:05.051932+00:00", "meta": {"OBJECT_NAME": "IRIDIUM 33 DEB", "OBJECT_ID": "1997-051MQ", "EPOCH": "2025-12-07T16:41:29.147136", "MEAN_MOTION": 14.76272854, "ECCENTRICITY": 0.00154972, "INCLINATION": 86.3098, "RA_OF_ASC_NODE": 316.3932, "ARG_OF_PERICENTER": 201.8058, "MEAN_ANOMALY": 332.1989, "EPHEMERIS_TYPE": 0, "CLASSIFICATION_TYPE": "U", "NORAD_CAT_ID": 34870, "ELEMENT_SET_NO": 999, "REV_AT_EPOCH": 88836, "BSTAR": 0.0021061979, "MEAN_MOTION_DOT": 0.00014658, "MEAN_MOTION_DDOT": 0}, "tle": {"line1": "1 34870U 97051MQ  25341.69547624  .00014658  00000+0  21062-2 0  9998", "line2": "2 34870  86.3098 316.3932 0015497 201.8058 332.1989 14.76272854888369"}}, "geometry": {"type": "Point", "coordinates": [-32.179928015195834, 72.72403274682046]}}, {"type": "Feature", "properties": {"norad_id": 34896, "name": "IRIDIUM 33 DEB", "group": "iridium-33-debris", "lat": 53.98426819957093, "lon": -26.524917675691068, "alt_km": 684.9970959341963, "timestamp": "2025-12-08T21:31:05.051942+00:00", "meta": {"OBJECT_NAME": "IRIDIUM 33 DEB", "OBJECT_ID": "1997-051MY", "EPOCH": "2025-12-08T06:47:45.155328", "MEAN_MOTION": 14.66206819, "ECCENTRICITY": 0.00239488, "INCLINATION": 86.3293, "RA_OF_ASC_NODE": 328.6838, "ARG_OF_PERICENTER": 231.0822, "MEAN_ANOMALY": 187.3834, "EPHEMERIS_TYPE": 0, "CLASSIFICATION_TYPE": "U", "NORAD_CAT_ID": 34896, "ELEMENT_SET_NO": 999, "REV_AT_EPOCH": 87554, "BSTAR": 0.001338628, "MEAN_MOTION_DOT": 7.421e-05, "MEAN_MOTION_DDOT": 0}, "tle": {"line1": "1 34896U 97051MY  25342.28316152  .00007421  00000+0  13386-2 0  9992", "line2": "2 34896  86.3293 328.6838 0023948 231.0822 187.3834 14.66206819875541"}}, "geometry": {"type": "Point", "coordinates": [-26.524917675691068, 53.98426819957093]}}, {"type": "Feature", "properties": {"norad_id": 34926, "name": "IRIDIUM 33 DEB", "group": "iridium-33-debris", "lat": -53.718776112767024, "lon": 4.766651928829744, "alt_km": 665.3253099094645, "timestamp": "2025-12-08T21:31:05.051952+00:00", "meta": {"OBJECT_NAME": "IRIDIUM 33 DEB", "OBJECT_ID": "1997-051NF", "EPOCH": "2025-12-08T08:36:48.617856", "MEAN_MOTION": 14.5409802, "ECCENTRICITY": 0.007612, "INCLINATION": 86.1323, "RA_OF_ASC_NODE": 10.3036, "ARG_OF_PERICENTER": 307.7909, "MEAN_ANOMALY": 65.4893, "EPHEMERIS_TYPE": 0, "CLASSIFICATION_TYPE": "U", "NORAD_CAT_ID": 34926, "ELEMENT_SET_NO": 999, "REV_AT_EPOCH": 86393, "BSTAR": 0.0060894257, "MEAN_MOTION_DOT": 0.00026822, "MEAN_MOTION_DDOT": 0}, "tle": {"line1": "1 34926U 97051NF  25342.35889604  .00026822  00000+0  60894-2 0  9993", "line2": "2 34926  86.1323  10.3036 0076120 307.7909  65.4893 14.54098020863930"}}, "geometry": {"type": "Point", "coordinates": [4.766651928829744, -53.718776112767024]}}, {"type": "Feature", "properties": {"norad_id": 34985, "name": "IRIDIUM 33 DEB", "group": "iridium-33-debris", "lat": -60.69742119618648, "lon": -114.98545814493775, "alt_km": 744.859683009614, "timestamp": "2025-12-08T21:31:05.051963+00:00", "meta": {"OBJECT_NAME": "IRIDIUM 33 DEB", "OBJECT_ID": "1997-051NR", "EPOCH": "2025-12-08T05:40:04.658592", "MEAN_MOTION": 14.41979756, "ECCENTRICITY": 0.00202828, "INCLINATION": 86.3695, "RA_OF_ASC_NODE": 58.8006, "ARG_OF_PERICENTER": 235.2895, "MEAN_ANOMALY": 179.3648, "EPHEMERIS_TYPE": 0, "CLASSIFICATION_TYPE": "U", "NORAD_CAT_ID": 34985, "ELEMENT_SET_NO": 999, "REV_AT_EPOCH": 87110, "BSTAR": 0.0010950657, "MEAN_MOTION_DOT": 3.617e-05, "MEAN_MOTION_DDOT": 0}, "tle": {"line1": "1 34985U 97051NR  25342.23616503  .00003617  00000+0  10951-2 0  9997", "line2": "2 34985  86.3695  58.8006 0020282 235.2895 179.3648 14.41979756871101"}}, "geometry": {"type": "Point", "coordinates": [-114.98545814493775, -60.69742119618648]}}, {"type": "Feature", "properties": {"norad_id": 35051, "name": "IRIDIUM 33 DEB", "group": "iridium-33-debris", "lat": 82.62118860940079, "lon": 160.7749563091064, "alt_km": 718.6231787313527, "timestamp": "2025-12-08T21:31:05.051973+00:00", "meta": {"OBJECT_NAME": "IRIDIUM 33 DEB", "OBJECT_ID": "1997-051NX", "EPOCH": "2025-12-05T08:27:53.565120", "MEAN_MOTION": 14.47546386, "ECCENTRICITY": 0.00106363, "INCLINATION": 86.3242, "RA_OF_ASC_NODE": 12.0813, "ARG_OF_PERICENTER": 111.2483, "MEAN_ANOMALY": 248.9857, "EPHEMERIS_TYPE": 0, "CLASSIFICATION_TYPE": "U", "NORAD_CAT_ID": 35051, "ELEMENT_SET_NO": 999, "REV_AT_EPOCH": 86889, "BSTAR": 0.0012192117, "MEAN_MOTION_DOT": 4.506e-05, "MEAN_MOTION_DDOT": 0}, "tle": {"line1": "1 35051U 97051NX  25339.35270330  .00004506  00000+0  12192-2 0  9992", "line2": "2 35051  86.3242  12.0813 0010636 111.2483 248.9857 14.47546386868892"}}, "geometry": {"type": "Point", "coordinates": [160.7749563091064, 82.62118860940079]}}, {"type": "Feature", "properties": {"norad_id": 35052, "name": "IRIDIUM 33 DEB", "group": "iridium-33-debris", "lat": 10.876042642368445, "lon": 22.830291235869062, "alt_km": 764.0966642088724, "timestamp": "2025-12-08T21:31:05.051984+00:00", "meta": {"OBJECT_NAME": "IRIDIUM 33 DEB", "OBJECT_ID": "1997-051NY", "EPOCH": "2025-12-08T13:07:12.544608", "MEAN_MOTION": 14.3848574, "ECCENTRICITY": 0.00136833, "INCLINATION": 86.3313, "RA_OF_ASC_NODE": 22.2739, "ARG_OF_PERICENTER": 96.7114, "MEAN_ANOMALY": 263.5642, "EPHEMERIS_TYPE": 0, "CLASSIFICATION_TYPE": "U", "NORAD_CAT_ID": 35052, "ELEMENT_SET_NO": 999, "REV_AT_EPOCH": 87215, "BSTAR": 0.00035710435, "MEAN_MOTION_DOT": 1.111e-05, "MEAN_MOTION_DDOT": 0}, "tle": {"line1": "1 35052U 97051NY  25342.54667297  .00001111  00000+0  35710-3 0  9991", "line2": "2 35052  86.3313  22.2739 0013683  96.7114 263.5642 14.38485740872150"}}, "geometry": {"type": "Point", "coordinates": [22.830291235869062, 10.876042642368445]}}, {"type": "Feature", "properties": {"norad_id": 35080, "name": "IRIDIUM 33 DEB", "group": "iridium-33-debris", "lat": -74.32151809587627, "lon": -112.11550836707882, "alt_km": 598.8651209045183, "timestamp": "2025-12-08T21:31:05.051994+00:00", "meta": {"OBJECT_NAME": "IRIDIUM 33 DEB", "OBJECT_ID": "1997-051PF", "EPOCH": "2025-12-08T04:12:23.440320", "MEAN_MOTION": 14.85168488, "ECCENTRICITY": 0.00618555, "INCLINATION": 86.2067, "RA_OF_ASC_NODE": 54.5559, "ARG_OF_PERICENTER": 196.3675, "MEAN_ANOMALY": 163.5554, "EPHEMERIS_TYPE": 0, "CLASSIFICATION_TYPE": "U", "NORAD_CAT_ID": 35080, "ELEMENT_SET_NO": 999, "REV_AT_EPOCH": 69620, "BSTAR": 0.0097703177, "MEAN_MOTION_DOT": 0.00087525, "MEAN_MOTION_DDOT": 0}, "tle": {"line1": "1 35080U 97051PF  25342.17527130  .00087525  00000+0  97703-2 0  9994", "line2": "2 35080  86.2067  54.5559 0061855 196.3675 163.5554 14.85168488696207"}}, "geometry": {"type": "Point", "coordinates": [-112.11550836707882, -74.32151809587627]}}, {"type": "Feature", "properties": {"norad_id": 35297, "name": "IRIDIUM 33 DEB", "group": "iridium-33-debris", "lat": -6.397015773847719, "lon": -115.19362056520502, "alt_km": 735.4569380186795, "timestamp": "2025-12-08T21:31:05.052004+00:00", "meta": {"OBJECT_NAME": "IRIDIUM 33 DEB", "OBJECT_ID": "1997-051PM", "EPOCH": "2025-12-06T00:31:29.302752", "MEAN_MOTION": 14.45108459, "ECCENTRICITY": 0.00170329, "INCLINATION": 86.3867, "RA_OF_ASC_NODE": 65.6268, "ARG_OF_PERICENTER": 161.2449, "MEAN_ANOMALY": 198.9384, "EPHEMERIS_TYPE": 0, "CLASSIFICATION_TYPE": "U", "NORAD_CAT_ID": 35297, "ELEMENT_SET_NO": 999, "REV_AT_EPOCH": 70329, "BSTAR": 0.0012426888, "MEAN_MOTION_DOT": 4.371e-05, "MEAN_MOTION_DDOT": 0}, "tle": {"line1": "1 35297U 97051PM  25340.02186693  .00004371  00000+0  12427-2 0  9999", "line2": "2 35297  86.3867  65.6268 0017032 161.2449 198.9384 14.45108459703293"}}, "geometry": {"type": "Point", "coordinates": [-115.19362056520502, -6.397015773847719]}}, {"type": "Feature", "properties": {"norad_id": 35299, "name": "IRIDIUM 33 DEB", "group": "iridium-33-debris", "lat": 0.9086701510165163, "lon": -145.1995304972926, "alt_km": 740.3272540533044, "timestamp": "2025-12-08T21:31:05.052014+00:00", "meta": {"OBJECT_NAME": "IRIDIUM 33 DEB", "OBJECT_ID": "1997-051PP", "EPOCH": "2025-12-08T14:43:37.905024", "MEAN_MOTION": 14.40830502, "ECCENTRICITY": 0.00588658, "INCLINATION": 86.2883, "RA_OF_ASC_NODE": 34.9826, "ARG_OF_PERICENTER": 115.5185, "MEAN_ANOMALY": 36.1002, "EPHEMERIS_TYPE": 0, "CLASSIFICATION_TYPE": "U", "NORAD_CAT_ID": 35299, "ELEMENT_SET_NO": 999, "REV_AT_EPOCH": 86271, "BSTAR": 0.0012790004, "MEAN_MOTION_DOT": 4.2e-05, "MEAN_MOTION_DDOT": 0}, "tle": {"line1": "1 35299U 97051PP  25342.61363316  .00004200  00000+0  12790-2 0  9991", "line2": "2 35299  86.2883  34.9826 0058865 115.5185  36.1002 14.40830502862718"}}, "geometry": {"type": "Point", "coordinates": [-145.1995304972926, 0.9086701510165163]}}]}